ATLAS CENTAUR 2         
1 00694U 63047A   25344.67331823  .00004629  00000+0  55892-3 0  9992
2 00694  30.3556 333.0006 0548968  15.9670 345.7518 14.11741999119039
THOR AGENA D R/B        
1 00733U 64002A   25344.48953374  .00000384  00000+0  15404-3 0  9997
2 00733  99.1218 347.9866 0033260 156.6761 203.5939 14.33957448225518
SL-3 R/B                
1 00877U 64053B   25344.04017083  .00000540  00000+0  12945-3 0  9993
2 00877  65.0768 234.0465 0073639 321.2453  38.3377 14.61272073253697
SL-8 R/B                
1 02802U 67045B   25344.50892856  .00000682  00000+0  19628-3 0  9999
2 02802  74.0096 154.6284 0064378 184.5387 175.5196 14.45533156 76132
SL-8 R/B                
1 03230U 68040B   25344.70944089  .00006051  00000+0  45525-3 0  9990
2 03230  74.0304 135.4029 0025342 337.2778  22.7285 15.02502024 76645
OAO 2                   
1 03597U 68110A   25344.85613953  .00000479  00000+0  13444-3 0  9996
2 03597  34.9945  41.1746 0005765 210.4493 149.5863 14.47242504  6228
ISIS 1                  
1 03669U 69009A   25344.84702624  .00000312  00000+0  22733-3 0  9994
2 03669  88.4485 165.0035 1706859 268.5229  72.0599 11.30353149338492
SERT 2                  
1 04327U 70009A   25344.62184191  .00000068  00000+0  14948-3 0  9994
2 04327  99.2646 287.6406 0005474  39.2495 139.1663 13.58717199767795
SL-3 R/B                
1 05118U 71028B   25344.93746054  .00041159  00000+0  62243-3 0  9998
2 05118  81.2375 161.0524 0019340 247.0558 112.8650 15.54288599974852
ASTEX 1                 
1 05560U 71089A   25344.63559081  .00000920  00000+0  23431-3 0  9992
2 05560  92.7136 122.9382 0016672  32.5388 327.6842 14.50638651849398
SL-8 R/B                
1 05730U 71119B   25344.73589927  .00018794  00000+0  97906-3 0  9994
2 05730  73.8891 341.7268 0559570 326.3954  30.2835 14.35655347642711
OAO 3 (COPERNICUS)      
1 06153U 72065A   25344.71139740  .00000714  00000+0  15111-3 0  9998
2 06153  35.0058  84.2200 0006254 157.4074 356.7649 14.59903829833182
